[{"OBJECT_NAME":"STARLINK-34231","OBJECT_ID":"2025-113F","EPOCH":"2025-12-27T10:53:25.574208","MEAN_MOTION":15.30205525,"ECCENTRICITY":0.0001521,"INCLINATION":53.1593,"RA_OF_ASC_NODE":66.7922,"ARG_OF_PERICENTER":78.4499,"MEAN_ANOMALY":281.6672,"EPHEMERIS_TYPE":0,"CLASSIFICATION_TYPE":"U","NORAD_CAT_ID":64175,"ELEMENT_SET_NO":999,"REV_AT_EPOCH":3400,"BSTAR":0.00045277,"MEAN_MOTION_DOT":0.00013077,"MEAN_MOTION_DDOT":0},{"OBJECT_NAME":"STARLINK-34191","OBJECT_ID":"2025-113G","EPOCH":"2025-12-27T11:09:58.705056","MEAN_MOTION":15.30200628,"ECCENTRICITY":0.0001254,"INCLINATION":53.1583,"RA_OF_ASC_NODE":66.152,"ARG_OF_PERICENTER":70.1376,"MEAN_ANOMALY":289.9759,"EPHEMERIS_TYPE":0,"CLASSIFICATION_TYPE":"U","NORAD_CAT_ID":64176,"ELEMENT_SET_NO":999,"REV_AT_EPOCH":3401,"BSTAR":0.00085574,"MEAN_MOTION_DOT":0.00025072,"MEAN_MOTION_DDOT":0},{"OBJECT_NAME":"STARLINK-34164","OBJECT_ID":"2025-113H","EPOCH":"2025-12-27T14:12:10.255968","MEAN_MOTION":15.30203223,"ECCENTRICITY":9.67e-5,"INCLINATION":53.1591,"RA_OF_ASC_NODE":66.2331,"ARG_OF_PERICENTER":91.5911,"MEAN_ANOMALY":268.52,"EPHEMERIS_TYPE":0,"CLASSIFICATION_TYPE":"U","NORAD_CAT_ID":64177,"ELEMENT_SET_NO":999,"REV_AT_EPOCH":3402,"BSTAR":0.0013901,"MEAN_MOTION_DOT":0.00041042,"MEAN_MOTION_DDOT":0},{"OBJECT_NAME":"STARLINK-34227","OBJECT_ID":"2025-113J","EPOCH":"2025-12-27T13:43:17.878944","MEAN_MOTION":15.30213885,"ECCENTRICITY":0.0001119,"INCLINATION":53.1609,"RA_OF_ASC_NODE":66.1068,"ARG_OF_PERICENTER":75.2326,"MEAN_ANOMALY":284.8799,"EPHEMERIS_TYPE":0,"CLASSIFICATION_TYPE":"U","NORAD_CAT_ID":64178,"ELEMENT_SET_NO":999,"REV_AT_EPOCH":3402,"BSTAR":0.0013495,"MEAN_MOTION_DOT":0.0003984,"MEAN_MOTION_DDOT":0},{"OBJECT_NAME":"STARLINK-34194","OBJECT_ID":"2025-113K","EPOCH":"2025-12-27T11:17:34.745856","MEAN_MOTION":15.30185844,"ECCENTRICITY":0.0001183,"INCLINATION":53.1587,"RA_OF_ASC_NODE":66.188,"ARG_OF_PERICENTER":57.5887,"MEAN_ANOMALY":302.5228,"EPHEMERIS_TYPE":0,"CLASSIFICATION_TYPE":"U","NORAD_CAT_ID":64179,"ELEMENT_SET_NO":999,"REV_AT_EPOCH":3401,"BSTAR":0.00075449,"MEAN_MOTION_DOT":0.00022043,"MEAN_MOTION_DDOT":0},{"OBJECT_NAME":"STARLINK-34000","OBJECT_ID":"2025-113L","EPOCH":"2025-12-27T10:13:54.643296","MEAN_MOTION":15.30200891,"ECCENTRICITY":0.000162,"INCLINATION":53.159,"RA_OF_ASC_NODE":66.6199,"ARG_OF_PERICENTER":133.3789,"MEAN_ANOMALY":226.7347,"EPHEMERIS_TYPE":0,"CLASSIFICATION_TYPE":"U","NORAD_CAT_ID":64180,"ELEMENT_SET_NO":999,"REV_AT_EPOCH":3396,"BSTAR":0.00085607,"MEAN_MOTION_DOT":0.00025082,"MEAN_MOTION_DDOT":0},{"OBJECT_NAME":"STARLINK-33917","OBJECT_ID":"2025-113M","EPOCH":"2025-12-27T10:51:54.415296","MEAN_MOTION":15.30196819,"ECCENTRICITY":0.0001454,"INCLINATION":53.1592,"RA_OF_ASC_NODE":66.7802,"ARG_OF_PERICENTER":89.3948,"MEAN_ANOMALY":270.7219,"EPHEMERIS_TYPE":0,"CLASSIFICATION_TYPE":"U","NORAD_CAT_ID":64181,"ELEMENT_SET_NO":999,"REV_AT_EPOCH":3400,"BSTAR":0.0011185,"MEAN_MOTION_DOT":0.0003291,"MEAN_MOTION_DDOT":0},{"OBJECT_NAME":"STARLINK-34131","OBJECT_ID":"2025-113N","EPOCH":"2025-12-27T12:06:12.109248","MEAN_MOTION":15.30193068,"ECCENTRICITY":0.0001153,"INCLINATION":53.1588,"RA_OF_ASC_NODE":66.3973,"ARG_OF_PERICENTER":99.2795,"MEAN_ANOMALY":260.8336,"EPHEMERIS_TYPE":0,"CLASSIFICATION_TYPE":"U","NORAD_CAT_ID":64182,"ELEMENT_SET_NO":999,"REV_AT_EPOCH":3397,"BSTAR":0.00075843,"MEAN_MOTION_DOT":0.00022166,"MEAN_MOTION_DDOT":0},{"OBJECT_NAME":"STARLINK-34188","OBJECT_ID":"2025-113P","EPOCH":"2025-12-27T09:20:53.530080","MEAN_MOTION":15.30212316,"ECCENTRICITY":0.0001209,"INCLINATION":53.159,"RA_OF_ASC_NODE":67.101,"ARG_OF_PERICENTER":105.1922,"MEAN_ANOMALY":254.9212,"EPHEMERIS_TYPE":0,"CLASSIFICATION_TYPE":"U","NORAD_CAT_ID":64183,"ELEMENT_SET_NO":999,"REV_AT_EPOCH":3399,"BSTAR":0.00098467,"MEAN_MOTION_DOT":0.00028929,"MEAN_MOTION_DDOT":0},{"OBJECT_NAME":"STARLINK-34197","OBJECT_ID":"2025-113Q","EPOCH":"2025-12-27T14:07:36.812928","MEAN_MOTION":15.30201607,"ECCENTRICITY":0.0001526,"INCLINATION":53.1598,"RA_OF_ASC_NODE":66.2133,"ARG_OF_PERICENTER":72.2937,"MEAN_ANOMALY":287.823,"EPHEMERIS_TYPE":0,"CLASSIFICATION_TYPE":"U","NORAD_CAT_ID":64184,"ELEMENT_SET_NO":999,"REV_AT_EPOCH":3402,"BSTAR":0.0013696,"MEAN_MOTION_DOT":0.00040426,"MEAN_MOTION_DDOT":0},{"OBJECT_NAME":"STARLINK-34063","OBJECT_ID":"2025-113R","EPOCH":"2025-12-27T12:13:48.347904","MEAN_MOTION":15.3020597,"ECCENTRICITY":0.0001344,"INCLINATION":53.1608,"RA_OF_ASC_NODE":66.4287,"ARG_OF_PERICENTER":67.8051,"MEAN_ANOMALY":292.3092,"EPHEMERIS_TYPE":0,"CLASSIFICATION_TYPE":"U","NORAD_CAT_ID":64185,"ELEMENT_SET_NO":999,"REV_AT_EPOCH":3401,"BSTAR":0.00087931,"MEAN_MOTION_DOT":0.00025779,"MEAN_MOTION_DDOT":0},{"OBJECT_NAME":"STARLINK-34200","OBJECT_ID":"2025-113S","EPOCH":"2025-12-27T14:46:57.779328","MEAN_MOTION":15.30198748,"ECCENTRICITY":0.0002555,"INCLINATION":53.1588,"RA_OF_ASC_NODE":65.6718,"ARG_OF_PERICENTER":29.8083,"MEAN_ANOMALY":330.3063,"EPHEMERIS_TYPE":0,"CLASSIFICATION_TYPE":"U","NORAD_CAT_ID":64186,"ELEMENT_SET_NO":999,"REV_AT_EPOCH":3403,"BSTAR":0.0011506,"MEAN_MOTION_DOT":0.00033873,"MEAN_MOTION_DDOT":0},{"OBJECT_NAME":"STARLINK-33934","OBJECT_ID":"2025-113T","EPOCH":"2025-12-27T10:45:49.567104","MEAN_MOTION":15.30201607,"ECCENTRICITY":2.76e-5,"INCLINATION":53.1613,"RA_OF_ASC_NODE":66.7569,"ARG_OF_PERICENTER":101.8391,"MEAN_ANOMALY":258.2641,"EPHEMERIS_TYPE":0,"CLASSIFICATION_TYPE":"U","NORAD_CAT_ID":64187,"ELEMENT_SET_NO":999,"REV_AT_EPOCH":3396,"BSTAR":0.00062181,"MEAN_MOTION_DOT":0.00018103,"MEAN_MOTION_DDOT":0},{"OBJECT_NAME":"STARLINK-33929","OBJECT_ID":"2025-113U","EPOCH":"2025-12-27T12:16:50.529216","MEAN_MOTION":15.30207473,"ECCENTRICITY":0.0001101,"INCLINATION":53.1609,"RA_OF_ASC_NODE":66.4374,"ARG_OF_PERICENTER":87.0568,"MEAN_ANOMALY":273.0559,"EPHEMERIS_TYPE":0,"CLASSIFICATION_TYPE":"U","NORAD_CAT_ID":64188,"ELEMENT_SET_NO":999,"REV_AT_EPOCH":3401,"BSTAR":0.00083528,"MEAN_MOTION_DOT":0.00024467,"MEAN_MOTION_DDOT":0},{"OBJECT_NAME":"STARLINK-33872","OBJECT_ID":"2025-113V","EPOCH":"2025-12-27T14:27:12.175200","MEAN_MOTION":15.30217293,"ECCENTRICITY":0.0001387,"INCLINATION":53.1581,"RA_OF_ASC_NODE":65.5866,"ARG_OF_PERICENTER":44.8614,"MEAN_ANOMALY":315.2498,"EPHEMERIS_TYPE":0,"CLASSIFICATION_TYPE":"U","NORAD_CAT_ID":64189,"ELEMENT_SET_NO":999,"REV_AT_EPOCH":3399,"BSTAR":0.0016502,"MEAN_MOTION_DOT":0.00048864,"MEAN_MOTION_DDOT":0},{"OBJECT_NAME":"STARLINK-34214","OBJECT_ID":"2025-113W","EPOCH":"2025-12-27T14:09:06.922080","MEAN_MOTION":15.30249366,"ECCENTRICITY":0.0001071,"INCLINATION":53.159,"RA_OF_ASC_NODE":66.2116,"ARG_OF_PERICENTER":87.1753,"MEAN_ANOMALY":272.937,"EPHEMERIS_TYPE":0,"CLASSIFICATION_TYPE":"U","NORAD_CAT_ID":64190,"ELEMENT_SET_NO":999,"REV_AT_EPOCH":3402,"BSTAR":0.0017839,"MEAN_MOTION_DOT":0.00052934,"MEAN_MOTION_DDOT":0},{"OBJECT_NAME":"STARLINK-34222","OBJECT_ID":"2025-113X","EPOCH":"2025-12-27T11:08:37.294656","MEAN_MOTION":15.30221036,"ECCENTRICITY":0.000191,"INCLINATION":53.1594,"RA_OF_ASC_NODE":66.8518,"ARG_OF_PERICENTER":95.4362,"MEAN_ANOMALY":264.6857,"EPHEMERIS_TYPE":0,"CLASSIFICATION_TYPE":"U","NORAD_CAT_ID":64191,"ELEMENT_SET_NO":999,"REV_AT_EPOCH":3396,"BSTAR":0.001051,"MEAN_MOTION_DOT":0.00030919,"MEAN_MOTION_DDOT":0}]
