STARLINK-34231          
1 64175U 25113F   25361.45376822  .00013077  00000+0  45277-3 0  9994
2 64175  53.1593  66.7922 0001521  78.4499 281.6672 15.30205525 34000
STARLINK-34191          
1 64176U 25113G   25361.46526279  .00025072  00000+0  85574-3 0  9991
2 64176  53.1583  66.1520 0001254  70.1376 289.9759 15.30200628 34011
STARLINK-34164          
1 64177U 25113H   25361.59178537  .00041042  00000+0  13901-2 0  9995
2 64177  53.1591  66.2331 0000967  91.5911 268.5200 15.30203223 34023
STARLINK-34227          
1 64178U 25113J   25361.57173471  .00039840  00000+0  13495-2 0  9997
2 64178  53.1609  66.1068 0001119  75.2326 284.8799 15.30213885 34028
STARLINK-34194          
1 64179U 25113K   25361.47054104  .00022043  00000+0  75449-3 0  9993
2 64179  53.1587  66.1880 0001183  57.5887 302.5228 15.30185844 34019
STARLINK-34000          
1 64180U 25113L   25361.42632689  .00025082  00000+0  85607-3 0  9993
2 64180  53.1590  66.6199 0001620 133.3789 226.7347 15.30200891 33965
STARLINK-33917          
1 64181U 25113M   25361.45271314  .00032910  00000+0  11185-2 0  9998
2 64181  53.1592  66.7802 0001454  89.3948 270.7219 15.30196819 34009
STARLINK-34131          
1 64182U 25113N   25361.50430682  .00022166  00000+0  75843-3 0  9994
2 64182  53.1588  66.3973 0001153  99.2795 260.8336 15.30193068 33974
STARLINK-34188          
1 64183U 25113P   25361.38950845  .00028929  00000+0  98467-3 0  9999
2 64183  53.1590  67.1010 0001209 105.1922 254.9212 15.30212316 33997
STARLINK-34197          
1 64184U 25113Q   25361.58862052  .00040426  00000+0  13696-2 0  9990
2 64184  53.1598  66.2133 0001526  72.2937 287.8230 15.30201607 34025
STARLINK-34063          
1 64185U 25113R   25361.50958736  .00025779  00000+0  87931-3 0  9996
2 64185  53.1608  66.4287 0001344  67.8051 292.3092 15.30205970 34018
STARLINK-34200          
1 64186U 25113S   25361.61594652  .00033873  00000+0  11506-2 0  9990
2 64186  53.1588  65.6718 0002555  29.8083 330.3063 15.30198748 34031
STARLINK-33934          
1 64187U 25113T   25361.44849036  .00018103  00000+0  62181-3 0  9996
2 64187  53.1613  66.7569 0000276 101.8391 258.2641 15.30201607 33968
STARLINK-33929          
1 64188U 25113U   25361.51169594  .00024467  00000+0  83528-3 0  9997
2 64188  53.1609  66.4374 0001101  87.0568 273.0559 15.30207473 34011
STARLINK-33872          
1 64189U 25113V   25361.60222425  .00048864  00000+0  16502-2 0  9995
2 64189  53.1581  65.5866 0001387  44.8614 315.2498 15.30217293 33994
STARLINK-34214          
1 64190U 25113W   25361.58966345  .00052934  00000+0  17839-2 0  9997
2 64190  53.1590  66.2116 0001071  87.1753 272.9370 15.30249366 34025
STARLINK-34222          
1 64191U 25113X   25361.46432054  .00030919  00000+0  10510-2 0  9998
2 64191  53.1594  66.8518 0001910  95.4362 264.6857 15.30221036 33966
